LEMUR-2-ROUNDTRIPPER    
1 62711U 25009DG  26198.49769148  .00004118  00000+0  30046-3 0  9996
2 62711  97.7248 281.1409 0004500  59.8268 300.3403 15.04252230 82184
LEMUR-2-MYNAMEISJEFF    
1 62712U 25009DH  26197.83098972  .00004487  00000+0  32714-3 0  9997
2 62712  97.7299 280.8736 0004218  93.9545 266.2163 15.04238210 82087
LEMUR-2-LEIA-PHILIP     
1 63246U 25052AN  26198.40866739 -.00000010  00000+0  41011-5 0  9997
2 63246  97.6799  89.8470 0005065 114.6694 245.5056 14.97392166 73198
LEMUR-2-LIA-MARTIN      
1 63248U 25052AQ  26198.13509070  .00001570  00000+0  13775-3 0  9996
2 63248  97.6861  90.1001 0005189  85.6997 274.4819 14.98037500 73169
LEMUR-2-DELOITTE-1      
1 63259U 25052BB  26198.65031878  .00002350  00000+0  20502-3 0  9994
2 63259  97.6884  90.9372 0002537  61.5444 298.6034 14.97793824 73253
LEMUR-2-EMERSONROSE     
1 63261U 25052BD  26198.19485496  .00002388  00000+0  20041-3 0  9994
2 63261  97.6883  91.1066 0002618  57.1007 303.0468 14.99301194 73231
LEMUR-2-MARACHE-FRAN    
1 63262U 25052BE  26198.14950857  .00001649  00000+0  13621-3 0  9993
2 63262  97.6826  91.4309 0005417 244.8247 115.2415 15.00322436 73255
LEMUR-2-THEFALCONER     
1 63264U 25052BG  26198.14660556  .00001011  00000+0  91548-4 0  9997
2 63264  97.6823  90.0298 0000408 256.4392 103.6785 14.97567389 73176
LEMUR-2-UNTITLED-SC     
1 63351U 25061A   26198.16914551  .00001709  00000+0  98410-4 0  9992
2 63351  97.5658 173.3189 0019398 156.4933 203.7189 15.13653035 72127
LEMUR-2-ESPERANZA       
1 63352U 25061B   26198.40875252  .00001740  00000+0  99799-4 0  9990
2 63352  97.5665 173.6576 0019028 154.9312 205.2847 15.13760415 72166
LEMUR-2-KREMPEL-BRO2    
1 63353U 25061C   26198.49318499  .00001769  00000+0  10019-3 0  9993
2 63353  97.5711 174.3133 0020171 147.6720 212.5753 15.14187216 72192
LEMUR-2-THERMORAPTOR    
1 63354U 25061D   26198.53969718  .00001771  00000+0  10006-3 0  9994
2 63354  97.5717 174.4412 0019902 146.3860 213.8639 15.14270236 72205
LEMUR-2-NEUROSPICY      
1 63355U 25061E   26198.24472647  .00001814  00000+0  10218-3 0  9996
2 63355  97.5644 173.7506 0017662 150.2079 210.0162 15.14387869 72164
LEMUR-2-TILLINFINITY    
1 63356U 25061F   26198.40050763  .00001970  00000+0  10878-3 0  9991
2 63356  97.5628 174.2173 0019252 138.7215 221.5476 15.14973749 72212
LEMUR-2-KREMPEL-BRO1    
1 63357U 25061G   26198.31178085  .00001835  00000+0  10208-3 0  9997
2 63357  97.5631 174.0365 0019838 140.3530 219.9156 15.14779383 72198
LEMUR-2-LANGER2SPACE    
1 63358U 25061H   26198.34433574  .00002125  00000+0  11878-3 0  9995
2 63358  97.5634 173.8709 0017635 148.1825 212.0476 15.14473782 72189
LEMUR-2-BALTO           
1 63395U 25052BH  26197.93372968  .00002437  00000+0  19881-3 0  9997
2 63395  97.6925  91.2085 0005044 320.2373  39.8480 15.00373082 73229
LEMUR-2-KRISH           
1 64561U 25135AK  26198.30010413  .00001775  00000+0  16158-3 0  9999
2 64561  97.7770 312.9769 0001165  98.9751 261.1603 14.96456213 58429
LEMUR-2-HUBBLE-4        
1 64565U 25135AP  26198.55281801  .00000522  00000+0  54742-4 0  9992
2 64565  97.7722 312.1079 0002850 156.1717 203.9635 14.93689426 58405
LEMUR-2-SEJONG-2        
1 64586U 25135BL  26198.58787012  .00002231  00000+0  19936-3 0  9997
2 64586  97.7709 313.4082 0004117 207.2191 152.8816 14.96922569 58496
LEMUR-2-HUBBLE-5        
1 64840U 25135BT  26198.29295689  .00000407  00000+0  43281-4 0  9996
2 64840  97.7741 312.5223 0004455 226.7198 133.3651 14.94216448 58402
LEMUR-2-KARENDARRELL    
1 64841U 25135BU  26198.59713816  .00003861  00000+0  31062-3 0  9997
2 64841  97.7721 314.7670 0012682  97.4001 262.8665 15.00518815 58570
LEMUR-2-LUCILLE-ROSE    
1 65403U 25135BV  26198.30386946  .00003258  00000+0  26282-3 0  9999
2 65403  97.7708 314.5090 0015138 182.7111 177.4033 15.00502928 53150
LEMUR-2-AFFIE-WAUWIE    
1 66295U 25248C   26198.33032589  .00012925  00000+0  46965-3 0  9999
2 66295  45.3906 311.5300 0008947 263.2179  96.7692 15.28312820 39203
OTTER SDM               
1 66678U 25276N   26198.46717972  .00003113  00000+0  14739-3 0  9998
2 66678  97.4200 271.4454 0004416 243.2607 116.8176 15.20071543 35010
LEMUR-2-STAS-GORBUK     
1 66686U 25276W   26198.09413300  .00002833  00000+0  13597-3 0  9993
2 66686  97.4236 271.1299 0003692 238.6221 121.4653 15.19669421 34957
LEMUR-2-TEODOR          
1 66768U 25276DG  26198.63700110  .00002797  00000+0  12795-3 0  9990
2 66768  97.4140 271.9387 0002193  86.0179 274.1307 15.21351636 35075
LEMUR-2-LAILA           
1 66776U 25276DQ  26198.14609617  .00003133  00000+0  14200-3 0  9993
2 66776  97.4163 271.5951 0002912  91.7042 268.4528 15.21575778 35002
LEMUR-2-CELIJO-SB-PK    
1 66781U 25276DW  26198.45252609  .00003102  00000+0  25200-3 0  9996
2 66781  97.5188 268.2309 0006869  58.8596 301.3301 15.00298646 27166
